{"fetched_at":"2026-07-21T07:06:23.608Z","source":"https://celestrak.org/NORAD/elements/gp.php?GROUP=globalstar&FORMAT=JSON","constellation":"globalstar","records":[{"OBJECT_NAME":"GLOBALSTAR M080","OBJECT_ID":"2011-080B","EPOCH":"2026-07-20T22:00:55.859616","CLASSIFICATION_TYPE":"U","MEAN_MOTION":12.62257617,"ECCENTRICITY":0.00002972,"INCLINATION":52.0059,"RA_OF_ASC_NODE":276.3288,"ARG_OF_PERICENTER":69.7557,"MEAN_ANOMALY":102.241,"EPHEMERIS_TYPE":0,"NORAD_CAT_ID":38041,"ELEMENT_SET_NO":999,"REV_AT_EPOCH":67314,"BSTAR":0.000043088275,"MEAN_MOTION_DOT":-9.6e-7,"MEAN_MOTION_DDOT":0},{"OBJECT_NAME":"GLOBALSTAR M082","OBJECT_ID":"2011-080C","EPOCH":"2026-07-20T08:14:25.638720","CLASSIFICATION_TYPE":"U","MEAN_MOTION":12.62264361,"ECCENTRICITY":0.00001918,"INCLINATION":52.0052,"RA_OF_ASC_NODE":233.5791,"ARG_OF_PERICENTER":59.3982,"MEAN_ANOMALY":313.2431,"EPHEMERIS_TYPE":0,"NORAD_CAT_ID":38042,"ELEMENT_SET_NO":999,"REV_AT_EPOCH":67378,"BSTAR":0.000032460742,"MEAN_MOTION_DOT":-9.8e-7,"MEAN_MOTION_DDOT":0},{"OBJECT_NAME":"GLOBALSTAR M092","OBJECT_ID":"2011-080D","EPOCH":"2026-07-20T07:39:48.877344","CLASSIFICATION_TYPE":"U","MEAN_MOTION":12.6226793,"ECCENTRICITY":0.00007384,"INCLINATION":52.0105,"RA_OF_ASC_NODE":324.05,"ARG_OF_PERICENTER":111.9825,"MEAN_ANOMALY":270.8003,"EPHEMERIS_TYPE":0,"NORAD_CAT_ID":38043,"ELEMENT_SET_NO":999,"REV_AT_EPOCH":67223,"BSTAR":0.00011414509,"MEAN_MOTION_DOT":-8.3e-7,"MEAN_MOTION_DDOT":0},{"OBJECT_NAME":"GLOBALSTAR M090","OBJECT_ID":"2011-080E","EPOCH":"2026-07-20T19:13:24.219264","CLASSIFICATION_TYPE":"U","MEAN_MOTION":12.62269646,"ECCENTRICITY":0.00003889,"INCLINATION":52.0095,"RA_OF_ASC_NODE":226.1523,"ARG_OF_PERICENTER":81.3486,"MEAN_ANOMALY":90.6895,"EPHEMERIS_TYPE":0,"NORAD_CAT_ID":38044,"ELEMENT_SET_NO":999,"REV_AT_EPOCH":67395,"BSTAR":0.000039462553,"MEAN_MOTION_DOT":-9.7e-7,"MEAN_MOTION_DDOT":0},{"OBJECT_NAME":"GLOBALSTAR M086","OBJECT_ID":"2011-080F","EPOCH":"2026-07-20T12:05:10.422240","CLASSIFICATION_TYPE":"U","MEAN_MOTION":12.6228786,"ECCENTRICITY":0.00014199,"INCLINATION":51.9871,"RA_OF_ASC_NODE":226.9319,"ARG_OF_PERICENTER":119.1904,"MEAN_ANOMALY":44.917,"EPHEMERIS_TYPE":0,"NORAD_CAT_ID":38045,"ELEMENT_SET_NO":999,"REV_AT_EPOCH":67386,"BSTAR":-0.000007123301,"MEAN_MOTION_DOT":-0.00000105,"MEAN_MOTION_DDOT":0},{"OBJECT_NAME":"GLOBALSTAR M097","OBJECT_ID":"2013-005A","EPOCH":"2026-07-20T02:28:57.232416","CLASSIFICATION_TYPE":"U","MEAN_MOTION":12.62271277,"ECCENTRICITY":0.00005373,"INCLINATION":52.0033,"RA_OF_ASC_NODE":143.1347,"ARG_OF_PERICENTER":45.2997,"MEAN_ANOMALY":314.7913,"EPHEMERIS_TYPE":0,"NORAD_CAT_ID":39072,"ELEMENT_SET_NO":999,"REV_AT_EPOCH":62106,"BSTAR":0.000019912644,"MEAN_MOTION_DOT":-0.000001,"MEAN_MOTION_DDOT":0},{"OBJECT_NAME":"GLOBALSTAR M093","OBJECT_ID":"2013-005B","EPOCH":"2026-07-20T13:14:35.477664","CLASSIFICATION_TYPE":"U","MEAN_MOTION":12.62266399,"ECCENTRICITY":0.0000773,"INCLINATION":52.0098,"RA_OF_ASC_NODE":135.13,"ARG_OF_PERICENTER":51.538,"MEAN_ANOMALY":308.5556,"EPHEMERIS_TYPE":0,"NORAD_CAT_ID":39073,"ELEMENT_SET_NO":999,"REV_AT_EPOCH":62107,"BSTAR":0.000092331,"MEAN_MOTION_DOT":-8.7e-7,"MEAN_MOTION_DDOT":0},{"OBJECT_NAME":"GLOBALSTAR M094","OBJECT_ID":"2013-005C","EPOCH":"2026-07-20T22:44:30.982848","CLASSIFICATION_TYPE":"U","MEAN_MOTION":12.62264274,"ECCENTRICITY":0.00010409,"INCLINATION":51.997,"RA_OF_ASC_NODE":48.0088,"ARG_OF_PERICENTER":72.8652,"MEAN_ANOMALY":287.2329,"EPHEMERIS_TYPE":0,"NORAD_CAT_ID":39074,"ELEMENT_SET_NO":999,"REV_AT_EPOCH":62273,"BSTAR":0.00000374209,"MEAN_MOTION_DOT":-0.00000103,"MEAN_MOTION_DDOT":0},{"OBJECT_NAME":"GLOBALSTAR M096","OBJECT_ID":"2013-005D","EPOCH":"2026-07-20T23:03:59.379552","CLASSIFICATION_TYPE":"U","MEAN_MOTION":12.62265888,"ECCENTRICITY":0.00008383,"INCLINATION":52.0076,"RA_OF_ASC_NODE":96.796,"ARG_OF_PERICENTER":52.9453,"MEAN_ANOMALY":307.1491,"EPHEMERIS_TYPE":0,"NORAD_CAT_ID":39075,"ELEMENT_SET_NO":999,"REV_AT_EPOCH":62165,"BSTAR":0.000086627167,"MEAN_MOTION_DOT":-8.8e-7,"MEAN_MOTION_DDOT":0},{"OBJECT_NAME":"GLOBALSTAR M078","OBJECT_ID":"2013-005E","EPOCH":"2026-07-20T14:49:13.136160","CLASSIFICATION_TYPE":"U","MEAN_MOTION":12.62260091,"ECCENTRICITY":0.00009656,"INCLINATION":51.9848,"RA_OF_ASC_NODE":181.8056,"ARG_OF_PERICENTER":353.4693,"MEAN_ANOMALY":6.6161,"EPHEMERIS_TYPE":0,"NORAD_CAT_ID":39076,"ELEMENT_SET_NO":999,"REV_AT_EPOCH":62023,"BSTAR":-0.000004251896,"MEAN_MOTION_DOT":-0.00000105,"MEAN_MOTION_DDOT":0},{"OBJECT_NAME":"GLOBALSTAR M095","OBJECT_ID":"2013-005F","EPOCH":"2026-07-20T07:51:31.164192","CLASSIFICATION_TYPE":"U","MEAN_MOTION":12.6226408,"ECCENTRICITY":0.00005732,"INCLINATION":52.0054,"RA_OF_ASC_NODE":180.3391,"ARG_OF_PERICENTER":21.166,"MEAN_ANOMALY":338.923,"EPHEMERIS_TYPE":0,"NORAD_CAT_ID":39077,"ELEMENT_SET_NO":999,"REV_AT_EPOCH":62005,"BSTAR":-7.72819e-7,"MEAN_MOTION_DOT":-0.00000104,"MEAN_MOTION_DDOT":0},{"OBJECT_NAME":"GLOBALSTAR M087","OBJECT_ID":"2022-064A","EPOCH":"2026-07-20T08:10:22.096128","CLASSIFICATION_TYPE":"U","MEAN_MOTION":12.62269449,"ECCENTRICITY":0.00008982,"INCLINATION":52.0016,"RA_OF_ASC_NODE":321.5199,"ARG_OF_PERICENTER":91.1053,"MEAN_ANOMALY":268.9917,"EPHEMERIS_TYPE":0,"NORAD_CAT_ID":52888,"ELEMENT_SET_NO":999,"REV_AT_EPOCH":19532,"BSTAR":0.00009853977,"MEAN_MOTION_DOT":-8.6e-7,"MEAN_MOTION_DDOT":0}]}
